{"type": "FeatureCollection", "features": [ {"type": "Feature", "properties": {"norad_id": 66656, "name": "2025-274G", "group": "last-30-days", "lat": 64.15663853741418, "lon": 123.58724013837966, "alt_km": 584.697472743801, "timestamp": "2025-12-26T07:29:17.191925+00:00", "meta": {"OBJECT_NAME": "2025-274G", "OBJECT_ID": "2025-274G", "EPOCH": "2025-12-25T16:29:32.162784", "MEAN_MOTION": 14.92349038, "ECCENTRICITY": 0.00129558, "INCLINATION": 97.7403, "RA_OF_ASC_NODE": 286.6643, "ARG_OF_PERICENTER": 209.015, "MEAN_ANOMALY": 151.035, "EPHEMERIS_TYPE": 0, "CLASSIFICATION_TYPE": "U", "NORAD_CAT_ID": 66656, "ELEMENT_SET_NO": 999, "REV_AT_EPOCH": 433, "BSTAR": 0.00035890142, "MEAN_MOTION_DOT": 3.62e-05, "MEAN_MOTION_DDOT": 0}, "tle": {"line1": "1 66656U 25274G   25359.68717781  .00003620  00000+0  35890-3 0  9996", "line2": "2 66656  97.7403 286.6643 0012955 209.0150 151.0350 14.92349038  4333"}}, "geometry": {"type": "Point", "coordinates": [123.58724013837966, 64.15663853741418]}}, {"type": "Feature", "properties": {"norad_id": 66657, "name": "SPIRONE", "group": "last-30-days", "lat": 45.6109534804708, "lon": 115.27224176050537, "alt_km": 586.2098202348516, "timestamp": "2025-12-26T07:29:17.191935+00:00", "meta": {"OBJECT_NAME": "SPIRONE", "OBJECT_ID": "2025-274H", "EPOCH": "2025-12-25T18:01:04.034496", "MEAN_MOTION": 14.92527899, "ECCENTRICITY": 0.001096, "INCLINATION": 97.74, "RA_OF_ASC_NODE": 286.734, "ARG_OF_PERICENTER": 226.2948, "MEAN_ANOMALY": 133.7364, "EPHEMERIS_TYPE": 0, "CLASSIFICATION_TYPE": "U", "NORAD_CAT_ID": 66657, "ELEMENT_SET_NO": 999, "REV_AT_EPOCH": 434, "BSTAR": 0.00036151357, "MEAN_MOTION_DOT": 3.661e-05, "MEAN_MOTION_DDOT": 0}, "tle": {"line1": "1 66657U 25274H   25359.75074114  .00003661  00000+0  36151-3 0  9997", "line2": "2 66657  97.7400 286.7340 0010960 226.2948 133.7364 14.92527899  4342"}}, "geometry": {"type": "Point", "coordinates": [115.27224176050537, 45.6109534804708]}}, {"type": "Feature", "properties": {"norad_id": 66658, "name": "2025-274J", "group": "last-30-days", "lat": 27.40917987400621, "lon": 111.33806419408188, "alt_km": 586.3863516491119, "timestamp": "2025-12-26T07:29:17.191947+00:00", "meta": {"OBJECT_NAME": "2025-274J", "OBJECT_ID": "2025-274J", "EPOCH": "2025-12-25T17:56:13.034976", "MEAN_MOTION": 14.927091, "ECCENTRICITY": 0.00114637, "INCLINATION": 97.74, "RA_OF_ASC_NODE": 286.7386, "ARG_OF_PERICENTER": 229.5134, "MEAN_ANOMALY": 130.5087, "EPHEMERIS_TYPE": 0, "CLASSIFICATION_TYPE": "U", "NORAD_CAT_ID": 66658, "ELEMENT_SET_NO": 999, "REV_AT_EPOCH": 434, "BSTAR": 0.00051472804, "MEAN_MOTION_DOT": 5.263e-05, "MEAN_MOTION_DDOT": 0}, "tle": {"line1": "1 66658U 25274J   25359.74737309  .00005263  00000+0  51473-3 0  9993", "line2": "2 66658  97.7400 286.7386 0011463 229.5134 130.5087 14.92709100  4349"}}, "geometry": {"type": "Point", "coordinates": [111.33806419408188, 27.40917987400621]}}, {"type": "Feature", "properties": {"norad_id": 66659, "name": "JACK K", "group": "last-30-days", "lat": 7.985150187518241, "lon": 108.39599734226924, "alt_km": 586.3564826881748, "timestamp": "2025-12-26T07:29:17.191957+00:00", "meta": {"OBJECT_NAME": "JACK K", "OBJECT_ID": "2025-274K", "EPOCH": "2025-12-25T17:51:03.116448", "MEAN_MOTION": 14.92878978, "ECCENTRICITY": 0.00122138, "INCLINATION": 97.7403, "RA_OF_ASC_NODE": 286.7439, "ARG_OF_PERICENTER": 231.5343, "MEAN_ANOMALY": 128.4781, "EPHEMERIS_TYPE": 0, "CLASSIFICATION_TYPE": "U", "NORAD_CAT_ID": 66659, "ELEMENT_SET_NO": 999, "REV_AT_EPOCH": 434, "BSTAR": 0.00032013564, "MEAN_MOTION_DOT": 3.265e-05, "MEAN_MOTION_DDOT": 0}, "tle": {"line1": "1 66659U 25274K   25359.74378607  .00003265  00000+0  32014-3 0  9996", "line2": "2 66659  97.7403 286.7439 0012213 231.5343 128.4781 14.92878978  4348"}}, "geometry": {"type": "Point", "coordinates": [108.39599734226924, 7.985150187518241]}}, {"type": "Feature", "properties": {"norad_id": 66660, "name": "K-HERO", "group": "last-30-days", "lat": -7.898205825338276, "lon": 106.22983294062135, "alt_km": 585.8963429354471, "timestamp": "2025-12-26T07:29:17.191967+00:00", "meta": {"OBJECT_NAME": "K-HERO", "OBJECT_ID": "2025-274L", "EPOCH": "2025-12-25T19:23:20.955552", "MEAN_MOTION": 14.93030361, "ECCENTRICITY": 0.00128508, "INCLINATION": 97.7404, "RA_OF_ASC_NODE": 286.8151, "ARG_OF_PERICENTER": 232.0966, "MEAN_ANOMALY": 127.9092, "EPHEMERIS_TYPE": 0, "CLASSIFICATION_TYPE": "U", "NORAD_CAT_ID": 66660, "ELEMENT_SET_NO": 999, "REV_AT_EPOCH": 435, "BSTAR": 0.00030941954, "MEAN_MOTION_DOT": 3.167e-05, "MEAN_MOTION_DDOT": 0}, "tle": {"line1": "1 66660U 25274L   25359.80788143  .00003167  00000+0  30942-3 0  9994", "line2": "2 66660  97.7404 286.8151 0012850 232.0966 127.9092 14.93030361  4354"}}, "geometry": {"type": "Point", "coordinates": [106.22983294062135, -7.898205825338276]}}, {"type": "Feature", "properties": {"norad_id": 66661, "name": "SNUGLITE-III", "group": "last-30-days", "lat": -22.941915103551224, "lon": 104.01612485796831, "alt_km": 585.3397312768302, "timestamp": "2025-12-26T07:29:17.191977+00:00", "meta": {"OBJECT_NAME": "SNUGLITE-III", "OBJECT_ID": "2025-274M", "EPOCH": "2025-12-25T17:42:50.630400", "MEAN_MOTION": 14.93161533, "ECCENTRICITY": 0.00134664, "INCLINATION": 97.7401, "RA_OF_ASC_NODE": 286.7518, "ARG_OF_PERICENTER": 233.865, "MEAN_ANOMALY": 126.1324, "EPHEMERIS_TYPE": 0, "CLASSIFICATION_TYPE": "U", "NORAD_CAT_ID": 66661, "ELEMENT_SET_NO": 999, "REV_AT_EPOCH": 434, "BSTAR": 0.00027773641, "MEAN_MOTION_DOT": 2.847e-05, "MEAN_MOTION_DDOT": 0}, "tle": {"line1": "1 66661U 25274M   25359.73808600  .00002847  00000+0  27774-3 0  9991", "line2": "2 66661  97.7401 286.7518 0013466 233.8650 126.1324 14.93161533  4345"}}, "geometry": {"type": "Point", "coordinates": [104.01612485796831, -22.941915103551224]}}, {"type": "Feature", "properties": {"norad_id": 66662, "name": "2025-274N", "group": "last-30-days", "lat": -28.918547393029257, "lon": 103.01024852765579, "alt_km": 584.8797118428229, "timestamp": "2025-12-26T07:29:17.191987+00:00", "meta": {"OBJECT_NAME": "2025-274N", "OBJECT_ID": "2025-274N", "EPOCH": "2025-12-25T17:41:15.360576", "MEAN_MOTION": 14.93217933, "ECCENTRICITY": 0.00139066, "INCLINATION": 97.7402, "RA_OF_ASC_NODE": 286.7537, "ARG_OF_PERICENTER": 233.6564, "MEAN_ANOMALY": 126.3373, "EPHEMERIS_TYPE": 0, "CLASSIFICATION_TYPE": "U", "NORAD_CAT_ID": 66662, "ELEMENT_SET_NO": 999, "REV_AT_EPOCH": 434, "BSTAR": 0.00029061872, "MEAN_MOTION_DOT": 2.986e-05, "MEAN_MOTION_DDOT": 0}, "tle": {"line1": "1 66662U 25274N   25359.73698334  .00002986  00000+0  29062-3 0  9999", "line2": "2 66662  97.7402 286.7537 0013906 233.6564 126.3373 14.93217933  4341"}}, "geometry": {"type": "Point", "coordinates": [103.01024852765579, -28.918547393029257]}}, {"type": "Feature", "properties": {"norad_id": 66663, "name": "KSLV-II R/B", "group": "last-30-days", "lat": -59.35564127703808, "lon": -59.19075034951101, "alt_km": 544.2882980806962, "timestamp": "2025-12-26T07:29:17.191997+00:00", "meta": {"OBJECT_NAME": "KSLV-II R/B", "OBJECT_ID": "2025-274P", "EPOCH": "2025-12-23T05:59:25.426176", "MEAN_MOTION": 14.97536982, "ECCENTRICITY": 0.00600006, "INCLINATION": 97.7435, "RA_OF_ASC_NODE": 284.4956, "ARG_OF_PERICENTER": 282.7951, "MEAN_ANOMALY": 76.657, "EPHEMERIS_TYPE": 0, "CLASSIFICATION_TYPE": "U", "NORAD_CAT_ID": 66663, "ELEMENT_SET_NO": 999, "REV_AT_EPOCH": 398, "BSTAR": 0.0011394408, "MEAN_MOTION_DOT": 0.00013749, "MEAN_MOTION_DDOT": 0}, "tle": {"line1": "1 66663U 25274P   25357.24959984  .00013749  00000+0  11394-2 0  9992", "line2": "2 66663  97.7435 284.4956 0060000 282.7951  76.6570 14.97536982  3987"}}, "geometry": {"type": "Point", "coordinates": [-59.19075034951101, -59.35564127703808]}}, {"type": "Feature", "properties": {"norad_id": 66664, "name": "SOYUZ-MS 28", "group": "last-30-days", "lat": -12.932813153880993, "lon": -94.25732174095673, "alt_km": 420.083575094709, "timestamp": "2025-12-26T07:29:17.192009+00:00", "meta": {"OBJECT_NAME": "SOYUZ-MS 28", "OBJECT_ID": "2025-275A", "EPOCH": "2025-12-25T21:21:30.152448", "MEAN_MOTION": 15.49823805, "ECCENTRICITY": 0.00032345, "INCLINATION": 51.6319, "RA_OF_ASC_NODE": 77.3524, "ARG_OF_PERICENTER": 301.523, "MEAN_ANOMALY": 58.5443, "EPHEMERIS_TYPE": 0, "CLASSIFICATION_TYPE": "U", "NORAD_CAT_ID": 66664, "ELEMENT_SET_NO": 999, "REV_AT_EPOCH": 128, "BSTAR": 0.00025321218, "MEAN_MOTION_DOT": 0.00013933, "MEAN_MOTION_DDOT": 0}, "tle": {"line1": "1 66664U 25275A   25359.88993232  .00013933  00000+0  25321-3 0  9991", "line2": "2 66664  51.6319  77.3524 0003234 301.5230  58.5443 15.49823805  1284"}}, "geometry": {"type": "Point", "coordinates": [-94.25732174095673, -12.932813153880993]}}, {"type": "Feature", "properties": {"norad_id": 66666, "name": "FORMOSAT-8A", "group": "last-30-days", "lat": 60.93447407978873, "lon": 58.044027653729785, "alt_km": 561.3060255622831, "timestamp": "2025-12-26T07:29:17.192019+00:00", "meta": {"OBJECT_NAME": "FORMOSAT-8A", "OBJECT_ID": "2025-276A", "EPOCH": "2025-12-25T21:36:34.043328", "MEAN_MOTION": 15.00363321, "ECCENTRICITY": 0.00040471, "INCLINATION": 97.6575, "RA_OF_ASC_NODE": 71.6474, "ARG_OF_PERICENTER": 184.215, "MEAN_ANOMALY": 175.9041, "EPHEMERIS_TYPE": 0, "CLASSIFICATION_TYPE": "U", "NORAD_CAT_ID": 66666, "ELEMENT_SET_NO": 999, "REV_AT_EPOCH": 406, "BSTAR": 0.00032796533, "MEAN_MOTION_DOT": 4.059e-05, "MEAN_MOTION_DDOT": 0}, "tle": {"line1": "1 66666U 25276A   25359.90039402  .00004059  00000+0  32797-3 0  9991", "line2": "2 66666  97.6575  71.6474 0004047 184.2150 175.9041 15.00363321  4067"}}, "geometry": {"type": "Point", "coordinates": [58.044027653729785, 60.93447407978873]}}]}